SNUSAT-2                
1 43782U 18099AA  26192.13275498  .00004635  00000+0  20463-3 0  9995
2 43782  97.4052 245.1517 0009764 202.2456 157.8358 15.22201002416671
SNUGLITE                
1 43784U 18099AC  26192.38280986  .00006893  00000+0  25732-3 0  9994
2 43784  97.3862 246.4303 0003246 169.3126 190.8182 15.27703935417012
ITASAT                  
1 43786U 18099AE  26192.12862951  .00003615  00000+0  17404-3 0  9992
2 43786  97.4021 243.1647 0010761 266.8615  93.1389 15.19350764416543
EAGLET-I                
1 43790U 18099AJ  26191.53064057  .00002409  00000+0  13957-3 0  9991
2 43790  97.4225 240.5813 0009398 262.9103  97.1060 15.13114048415864
ESEO                    
1 43792U 18099AL  26191.92753566  .00001183  00000+0  89033-4 0  9993
2 43792  97.3951 228.2983 0010736 250.2460 109.7609 15.04310460415377
THEA                    
1 43796U 18099AQ  26192.11982843  .00011666  00000+0  33642-3 0  9992
2 43796  97.4438 262.0564 0007624 188.0128 172.0995 15.35842775416368
ASTROCAST 0.1           
1 43798U 18099AS  26192.01319176  .00025811  00000+0  44144-3 0  9992
2 43798  97.4379 271.2794 0005621 139.5983 220.5687 15.51239777418129
JY1SAT (JO-97)          
1 43803U 18099AX  26191.96988250  .00010834  00000+0  32704-3 0  9995
2 43803  97.4124 254.8968 0006447 171.3514 188.7841 15.34427741417278
SUOMI-100               
1 43804U 18099AY  26191.11660909  .00009577  00000+0  34267-3 0  9999
2 43804  97.4180 251.4306 0010031 189.6683 170.4366 15.28953452416920
CENTAURI-1              
1 43809U 18099BD  26192.09229890  .00003440  00000+0  17916-3 0  9997
2 43809  97.4213 243.2997 0012671 240.5599 119.4371 15.16599243416124
GLOBAL-2                
1 43812U 18099BG  26191.08876811  .00001788  00000+0  11744-3 0  9996
2 43812  97.3551 226.6497 0007678  81.0751 279.1347 15.08809515415360
SEAHAWK-1               
1 43820U 18099BQ  26192.38028693  .00004954  00000+0  21228-3 0  9992
2 43820  97.3955 244.5009 0007418 214.4165 145.6593 15.23198891416218
SAUDISAT 5A             
1 43831U 18102A   26192.52333257  .00003326  00000+0  12319-3 0  9993
2 43831  97.3060 253.6369 0010748  55.3466 304.8786 15.28297332419393
SAUDISAT 5B             
1 43833U 18102C   26192.53818825  .00003234  00000+0  11894-3 0  9990
2 43833  97.3168 256.7653 0011507  56.6096 303.6243 15.28541754419510
ISAT                    
1 43879U 18111D   26192.29106398  .00084078  00000+0  68989-3 0  9990
2 43879  97.5857 129.4541 0006891 145.3893 214.7819 15.70183085414949
UWE-4                   
1 43880U 18111E   26190.27481266  .00027640  00000+0  53768-3 0  9999
2 43880  97.5841 119.7053 0005270 218.3666 141.7210 15.47549208414191
D-STAR ONE (SPARROW)    
1 43881U 18111F   26190.51301030  .00199926  00000+0  93113-3 0  9992
2 43881  97.6090 133.6066 0006852 142.7997 217.3747 15.82781928414890
JILIN-1 09              
1 43943U 19005B   26192.52776038  .00002772  00000+0  12920-3 0  9990
2 43943  97.4744 287.2858 0002642  44.0848 316.0598 15.20721674412848
JILIN-1 10              
1 43946U 19005E   26192.52207414  .00003446  00000+0  13691-3 0  9995
2 43946  97.4795 291.3310 0008220 182.1883 177.9320 15.25981552413023
EGYPTSAT-A (MISRSAT-A)  
1 44047U 19008A   26192.47325634  .00000408  00000+0  72372-4 0  9997
2 44047  98.0187 256.9082 0001717  95.0643 265.0760 14.72334195396811
EMISAT                  
1 44078U 19018A   26192.47176337  .00000316  00000+0  10598-3 0  9995
2 44078  98.4640 251.1372 0019162 141.7973 218.4579 14.43649103383564
JILIN-1 GAOFEN 3A       
1 44312U 19032C   26192.52286061  .00005471  00000+0  17704-3 0  9997
2 44312  44.9735 222.9497 0004697  77.2838 282.8572 15.33144732391576
WT 1B                   
1 44316U 19032G   26192.52860166  .00007043  00000+0  26588-3 0  9992
2 44316  44.9732 288.0265 0008735  13.6947 346.4171 15.27679592390802
PROX-1                  
1 44339U 19036A   26192.41927999  .00007239  00000+0  68271-3 0  9999
2 44339  23.9958 312.3099 0005695 324.7055  35.3067 14.91197560377092
NPSAT1                  
1 44340U 19036B   26191.73321961  .00003483  00000+0  47246-3 0  9998
2 44340  23.9992  64.3763 0007645 117.3920 242.7354 14.74797380375973
FORMOSAT 7-3            
1 44343U 19036E   26191.77616230  .00003056  00000+0  16264-3 0  9993
2 44343  24.0004  16.1663 0000575 164.5556 195.4965 15.09974002386814
FORMOSAT 7-1            
1 44349U 19036L   26192.45005881  .00001437  00000+0  97180-4 0  9997
2 44349  23.9967 228.8099 0001067  98.8897 261.1724 14.96604021388299
FORMOSAT 7-4            
1 44350U 19036M   26192.47264366  .00001613  00000+0  11225-3 0  9997
2 44350  23.9984 290.7670 0001402 107.6941 252.3712 14.96601894387715
FORMOSAT 7-2            
1 44351U 19036N   26192.49500714  .00001685  00000+0  11845-3 0  9997
2 44351  24.0002 344.9299 0000906  97.0894 262.9710 14.96600601387232
