OBJECT_NAME,OBJECT_ID,EPOCH,MEAN_MOTION,ECCENTRICITY,INCLINATION,RA_OF_ASC_NODE,ARG_OF_PERICENTER,MEAN_ANOMALY,EPHEMERIS_TYPE,CLASSIFICATION_TYPE,NORAD_CAT_ID,ELEMENT_SET_NO,REV_AT_EPOCH,BSTAR,MEAN_MOTION_DOT,MEAN_MOTION_DDOT
SNUSAT-2,2018-099AA,2026-07-11T03:11:10.030272,15.22201002,.0009764,97.4052,245.1517,202.2456,157.8358,0,U,43782,999,41667,.20463E-3,.4635E-4,0
SNUGLITE,2018-099AC,2026-07-11T09:11:14.771904,15.27703935,.0003246,97.3862,246.4303,169.3126,190.8182,0,U,43784,999,41701,.25732E-3,.6893E-4,0
ITASAT,2018-099AE,2026-07-11T03:05:13.589664,15.19350764,.0010761,97.4021,243.1647,266.8615,93.1389,0,U,43786,999,41654,.17404E-3,.3615E-4,0
EAGLET-I,2018-099AJ,2026-07-10T12:44:07.345248,15.13114048,.0009398,97.4225,240.5813,262.9103,97.1060,0,U,43790,999,41586,.13957E-3,.2409E-4,0
ESEO,2018-099AL,2026-07-10T22:15:39.081024,15.04310460,.0010736,97.3951,228.2983,250.2460,109.7609,0,U,43792,999,41537,.89033E-4,.1183E-4,0
THEA,2018-099AQ,2026-07-11T02:52:33.176352,15.35842775,.0007624,97.4438,262.0564,188.0128,172.0995,0,U,43796,999,41636,.33642E-3,.11666E-3,0
ASTROCAST 0.1,2018-099AS,2026-07-11T00:18:59.768064,15.51239777,.0005621,97.4379,271.2794,139.5983,220.5687,0,U,43798,999,41812,.44144E-3,.25811E-3,0
JY1SAT (JO-97),2018-099AX,2026-07-10T23:16:37.848000,15.34427741,.0006447,97.4124,254.8968,171.3514,188.7841,0,U,43803,999,41727,.32704E-3,.10834E-3,0
SUOMI-100,2018-099AY,2026-07-10T02:47:55.025376,15.28953452,.00100311,97.4180,251.4306,189.6683,170.4366,0,U,43804,999,41692,.3426691E-3,.9577E-4,0
CENTAURI-1,2018-099BD,2026-07-11T02:12:54.624960,15.16599243,.0012671,97.4213,243.2997,240.5599,119.4371,0,U,43809,999,41612,.17916E-3,.344E-4,0
GLOBAL-2,2018-099BG,2026-07-10T02:07:49.564704,15.08809515,.00076788,97.3551,226.6497,81.0751,279.1347,0,U,43812,999,41536,.11743974E-3,.1788E-4,0
SEAHAWK-1,2018-099BQ,2026-07-11T09:07:36.790752,15.23198891,.0007418,97.3955,244.5009,214.4165,145.6593,0,U,43820,999,41621,.21228E-3,.4954E-4,0
SAUDISAT 5A,2018-102A,2026-07-11T12:33:35.934048,15.28297332,.0010748,97.3060,253.6369,55.3466,304.8786,0,U,43831,999,41939,.12319E-3,.3326E-4,0
SAUDISAT 5B,2018-102C,2026-07-11T12:54:59.464800,15.28541754,.0011507,97.3168,256.7653,56.6096,303.6243,0,U,43833,999,41951,.11894E-3,.3234E-4,0
ISAT,2018-111D,2026-07-11T06:59:07.927872,15.70183085,.0006891,97.5857,129.4541,145.3893,214.7819,0,U,43879,999,41494,.68989E-3,.84078E-3,0
UWE-4,2018-111E,2026-07-09T06:35:43.813824,15.47549208,.00052707,97.5841,119.7053,218.3666,141.7210,0,U,43880,999,41419,.53767723E-3,.2764E-3,0
D-STAR ONE (SPARROW),2018-111F,2026-07-09T12:18:44.089920,15.82781928,.00068528,97.6090,133.6066,142.7997,217.3747,0,U,43881,999,41489,.9311303E-3,.199926E-2,0
JILIN-1 09,2019-005B,2026-07-11T12:39:58.496832,15.20721674,.0002642,97.4744,287.2858,44.0848,316.0598,0,U,43943,999,41284,.1292E-3,.2772E-4,0
JILIN-1 10,2019-005E,2026-07-11T12:31:47.205696,15.25981552,.000822,97.4795,291.3310,182.1883,177.9320,0,U,43946,999,41302,.13691E-3,.3446E-4,0
EGYPTSAT-A (MISRSAT-A),2019-008A,2026-07-11T11:21:29.347776,14.72334195,.0001717,98.0187,256.9082,95.0643,265.0760,0,U,44047,999,39681,.72372E-4,.408E-5,0
EMISAT,2019-018A,2026-07-11T11:19:20.355168,14.43649103,.0019162,98.4640,251.1372,141.7973,218.4579,0,U,44078,999,38356,.10598E-3,.316E-5,0
JILIN-1 GAOFEN 3A,2019-032C,2026-07-11T12:32:55.156704,15.33144732,.0004697,44.9735,222.9497,77.2838,282.8572,0,U,44312,999,39157,.17704E-3,.5471E-4,0
WT 1B,2019-032G,2026-07-11T12:41:11.183424,15.27679592,.0008735,44.9732,288.0265,13.6947,346.4171,0,U,44316,999,39080,.26588E-3,.7043E-4,0
PROX-1,2019-036A,2026-07-11T10:03:45.791136,14.91197560,.0005695,23.9958,312.3099,324.7055,35.3067,0,U,44339,999,37709,.68271E-3,.7239E-4,0
NPSAT1,2019-036B,2026-07-10T17:35:50.174304,14.74797380,.0007645,23.9992,64.3763,117.3920,242.7354,0,U,44340,999,37597,.47246E-3,.3483E-4,0
FORMOSAT 7-3,2019-036E,2026-07-10T18:37:40.422720,15.09974002,.0000575,24.0004,16.1663,164.5556,195.4965,0,U,44343,999,38681,.16264E-3,.3056E-4,0
FORMOSAT 7-1,2019-036L,2026-07-11T10:48:05.081184,14.96604021,.0001067,23.9967,228.8099,98.8897,261.1724,0,U,44349,999,38829,.9718E-4,.1437E-4,0
FORMOSAT 7-4,2019-036M,2026-07-11T11:20:36.412224,14.96601894,.0001402,23.9984,290.7670,107.6941,252.3712,0,U,44350,999,38771,.11225E-3,.1613E-4,0
FORMOSAT 7-2,2019-036N,2026-07-11T11:52:48.616896,14.96600601,.0000906,24.0002,344.9299,97.0894,262.9710,0,U,44351,999,38723,.11845E-3,.1685E-4,0
